[{"OBJECT_NAME":"STARLINK-3199","OBJECT_ID":"2021-115AN","EPOCH":"2026-03-09T12:04:27.356160","MEAN_MOTION":15.08826102,"ECCENTRICITY":0.00012596,"INCLINATION":53.2171,"RA_OF_ASC_NODE":139.9583,"ARG_OF_PERICENTER":86.1555,"MEAN_ANOMALY":273.9581,"EPHEMERIS_TYPE":0,"CLASSIFICATION_TYPE":"U","NORAD_CAT_ID":49760,"ELEMENT_SET_NO":999,"REV_AT_EPOCH":23565,"BSTAR":-9.5197863e-5,"MEAN_MOTION_DOT":-1.802e-5,"MEAN_MOTION_DDOT":0},{"OBJECT_NAME":"PEGASUS DEB","OBJECT_ID":"1994-029AFX","EPOCH":"2026-03-01T06:33:22.731264","MEAN_MOTION":14.85739755,"ECCENTRICITY":0.0106553,"INCLINATION":81.851,"RA_OF_ASC_NODE":257.2393,"ARG_OF_PERICENTER":271.4617,"MEAN_ANOMALY":87.4394,"EPHEMERIS_TYPE":0,"CLASSIFICATION_TYPE":"U","NORAD_CAT_ID":39924,"ELEMENT_SET_NO":999,"REV_AT_EPOCH":63095,"BSTAR":0.00041812,"MEAN_MOTION_DOT":4.045e-5,"MEAN_MOTION_DDOT":0}]
